<?xml version="1.0" encoding="UTF-8"?>
<kml xmlns="http://www.opengis.net/kml/2.2">
<Document>
<Placemark>
<name>circuitokml</name>
<LineString>
<extrude>1</extrude>
<tessellate>1</tessellate>
<coordinates>
-6.031214,36.707242,39 
-6.031361,36.706937,45
-6.031731,36.706923,46
-6.034042,36.709123,48
-6.035991,36.709268,48
-6.036501,36.709091,47
-6.037939,36.706647,44
-6.036722,36.705990,40
-6.036403,36.706120,42
-6.035629,36.707874,48
-6.034826,36.708370,50
-6.034161,36.708351,0.0
-6.032612,36.706879,53
-6.032354,36.706323,47
-6.033416,36.704263,46
-6.033057,36.704080,41
-6.027324,36.707846,40
-6.027274,36.708663,36
-6.027651,36.709002,36
-6.031326,36.709527,37
-6.031959,36.710087,40
-6.032053,36.711767,40
-6.031346,36.712266,40
-6.031185,36.712572,34
-6.031395,36.712763,34
-6.033731,36.712717,37
-6.033885,36.712399,40
-6.032533,36.709708,41
-6.031214,36.707242,40
-6.031214,36.707242,39
</coordinates>
<altitudeMode>relativeToGround</altitudeMode>
</LineString>
</Placemark>
</Document>
</kml>